     3.04           N: GNSS NAV DATA    M: MIXED            RINEX VERSION / TYPE
ssrcrin-15.6.1x                         20250101 223000 UTC PGM / RUN BY / DATE 
    18                                                      LEAP SECONDS        
                                                            END OF HEADER       
S36 2025 01 01 22 30 08 0.000000000000E+00 0.000000000000E+00 3.402150000000E+05
     4.200368800000E+04 0.000000000000E+00 0.000000000000E+00 6.300000000000E+01
     3.674846960000E+03 0.000000000000E+00 0.000000000000E+00 3.276700000000E+04
     0.000000000000E+00 0.000000000000E+00 0.000000000000E+00 1.720000000000E+02
R20 2025 01 01 22 45 00-1.240931451321E-04-0.000000000000E+00 3.402000000000E+05
     1.287619238281E+04 1.001087188721E+00 3.725290298462E-09 0.000000000000E+00
     1.067480957031E+04 2.447201728821E+00 2.793967723846E-09 2.000000000000E+00
     1.929086865234E+04-2.020092964172E+00 9.313225746155E-10 0.000000000000E+00
R05 2025 01 01 22 45 00 1.431033015251E-04 9.094947017729E-13 3.402000000000E+05
     1.466498974609E+04-2.416711807251E+00 3.725290298462E-09 0.000000000000E+00
     1.058889941406E+04-5.007553100586E-01 2.793967723846E-09 1.000000000000E+00
     1.801111230469E+04 2.260870933533E+00 9.313225746155E-10 0.000000000000E+00
R04 2025 01 01 22 45 00 2.708705142140E-04 1.818989403546E-12 3.402000000000E+05
    -3.155699218750E+03-3.131945610046E+00 3.725290298462E-09 0.000000000000E+00
     1.029570947266E+04-4.514799118042E-01 9.313225746155E-10 6.000000000000E+00
     2.315297607422E+04-2.282819747925E-01-9.313225746155E-10 0.000000000000E+00
R21 2025 01 01 22 45 00-1.645870506763E-04-2.728484105319E-12 3.402000000000E+05
     8.063487304688E+03 1.104428291321E+00 1.862645149231E-09 0.000000000000E+00
    -7.954932617188E+03 2.930946350098E+00 2.793967723846E-09 4.000000000000E+00
     2.286396826172E+04 6.281166076660E-01-9.313225746155E-10 0.000000000000E+00
R12 2025 01 01 22 45 00 4.909932613373E-05 9.094947017729E-13 3.402000000000E+05
    -3.058908691406E+03 1.760499954224E+00 0.000000000000E+00 0.000000000000E+00
    -1.313117285156E+04-2.382773399353E+00 9.313225746155E-10-1.000000000000E+00
     2.167249267578E+04-1.194735527039E+00-2.793967723846E-09 0.000000000000E+00
R11 2025 01 01 22 45 00 1.990236341953E-06-1.818989403546E-12 3.402000000000E+05
     1.146293896484E+04 5.327558517456E-01-9.313225746155E-10 0.000000000000E+00
    -2.136265283203E+04-9.547023773193E-01 1.862645149231E-09 0.000000000000E+00
     7.908894042969E+03-3.354253768921E+00-9.313225746155E-10 0.000000000000E+00
S23 2025 01 01 22 29 20 0.000000000000E+00 0.000000000000E+00 3.402280000000E+05
     3.866796400000E+04 0.000000000000E+00 0.000000000000E+00 6.300000000000E+01
     1.681330800000E+04 0.000000000000E+00 0.000000000000E+00 3.276700000000E+04
     0.000000000000E+00 0.000000000000E+00 0.000000000000E+00 1.180000000000E+02
E08 2025 01 01 22 20 00-3.936046268791E-04-6.167510946398E-12 0.000000000000E+00
     5.800000000000E+01-1.724687500000E+02 2.559035165515E-09 6.074089700503E-01
    -7.962808012962E-06 1.743031898513E-04 1.116655766964E-05 5.440619813919E+03
     3.396000000000E+05-4.470348358154E-08 3.138837250313E-01-9.126961231232E-08
     9.694367087930E-01 1.081250000000E+02 6.406059825534E-01-5.163429363273E-09
     1.567922453121E-10 5.170000000000E+02 2.347000000000E+03
     3.120000000000E+00 0.000000000000E+00-5.820766091347E-09-6.053596735001E-09
     3.402650000000E+05
E31 2025 01 01 22 20 00-4.889769479632E-05-1.477928890381E-12 0.000000000000E+00
     5.800000000000E+01-2.668750000000E+01 3.490859694033E-09 2.082127265461E+00
    -1.167878508568E-06 1.738603459671E-04 6.167218089104E-06 5.440603399277E+03
     3.396000000000E+05-9.313225746155E-09 2.413352833947E+00 4.656612873077E-08
     9.641943023572E-01 2.092812500000E+02 1.948677247943E-01-5.550945504876E-09
    -4.653765276575E-10 5.170000000000E+02 2.347000000000E+03
     3.120000000000E+00 0.000000000000E+00 2.095475792885E-09 3.259629011154E-09
     3.402650000000E+05
E23 2025 01 01 22 20 00 8.341274224222E-06-1.989519660128E-13 0.000000000000E+00
     5.800000000000E+01-2.403125000000E+01 3.502288741527E-09 1.440995227807E+00
    -1.102685928345E-06 3.615708556026E-04 6.049871444702E-06 5.440610416412E+03
     3.396000000000E+05-7.636845111847E-08 2.409403123368E+00-2.421438694000E-08
     9.660994210730E-01 2.159062500000E+02 1.617324208091E+00-5.602019060866E-09
    -4.721625246072E-10 5.170000000000E+02 2.347000000000E+03
     3.120000000000E+00 3.900000000000E+02-6.984919309616E-10 1.164153218269E-09
     3.402650000000E+05
E33 2025 01 01 22 20 00 1.643737778068E-05 4.263256414561E-14 0.000000000000E+00
     5.800000000000E+01 1.751875000000E+02 2.710827202548E-09 2.701765449456E+00
     8.320435881615E-06 3.445480251685E-04 1.514330506325E-06 5.440613155365E+03
     3.396000000000E+05 7.450580596924E-08-1.776097969541E+00 5.401670932770E-08
     9.997065173092E-01 3.249375000000E+02-1.708650362637E+00-5.656664194198E-09
     2.285809498855E-10 5.170000000000E+02 2.347000000000E+03
     3.120000000000E+00 0.000000000000E+00-6.286427378654E-09-6.286427378654E-09
     3.402840000000E+05
E29 2025 01 01 22 20 00-5.857436917722E-05-3.097966327914E-12 0.000000000000E+00
     5.800000000000E+01-1.448437500000E+02 2.708684256143E-09-2.998255176540E+00
    -6.744638085365E-06 3.131086705253E-04 1.135841012001E-05 5.440619132996E+03
     3.396000000000E+05 3.166496753693E-08 3.155379006315E-01 1.676380634308E-08
     9.569438770107E-01 9.531250000000E+01 2.645076047017E+00-5.325578974598E-09
     2.314382117591E-10 5.170000000000E+02 2.347000000000E+03
     3.120000000000E+00 0.000000000000E+00-5.122274160385E-09-4.190951585770E-09
     3.402840000000E+05
S23 2025 01 01 22 31 28 0.000000000000E+00 0.000000000000E+00 3.402910000000E+05
     3.866796400000E+04 0.000000000000E+00 0.000000000000E+00 6.300000000000E+01
     1.681330800000E+04 0.000000000000E+00 0.000000000000E+00 3.276700000000E+04
     0.000000000000E+00 0.000000000000E+00 0.000000000000E+00 1.190000000000E+02
E13 2025 01 01 22 20 00-2.862338442355E-05-4.405364961713E-13 0.000000000000E+00
     5.800000000000E+01 1.784687500000E+02 2.640467128912E-09-2.643755937538E+00
     8.231028914452E-06 3.851127112284E-04 2.816319465637E-06 5.440607442856E+03
     3.396000000000E+05-6.332993507385E-08-1.776062195342E+00-3.725290298462E-09
     9.996893953160E-01 2.961875000000E+02-1.101441319361E+00-5.545945296597E-09
     2.339383158984E-10 5.170000000000E+02 2.347000000000E+03
     3.120000000000E+00 0.000000000000E+00 2.561137080193E-09 3.259629011154E-09
     3.402950000000E+05
E33 2025 01 01 22 20 00 1.643708674237E-05 4.263256414561E-14 0.000000000000E+00
     5.800000000000E+01 1.751875000000E+02 2.710827202548E-09 2.701765449456E+00
     8.320435881615E-06 3.445480251685E-04 1.514330506325E-06 5.440613155365E+03
     3.396000000000E+05 7.450580596924E-08-1.776097969541E+00 5.401670932770E-08
     9.997065173092E-01 3.249375000000E+02-1.708650362637E+00-5.656664194198E-09
     2.285809498855E-10 2.580000000000E+02 2.347000000000E+03
     3.120000000000E+00 0.000000000000E+00-6.286427378654E-09 0.000000000000E+00
     3.403400000000E+05
E31 2025 01 01 22 20 00-4.889903357252E-05-1.477928890381E-12 0.000000000000E+00
     5.800000000000E+01-2.668750000000E+01 3.490859694033E-09 2.082127265461E+00
    -1.167878508568E-06 1.738603459671E-04 6.167218089104E-06 5.440603399277E+03
     3.396000000000E+05-9.313225746155E-09 2.413352833947E+00 4.656612873077E-08
     9.641943023572E-01 2.092812500000E+02 1.948677247943E-01-5.550945504876E-09
    -4.653765276575E-10 2.580000000000E+02 2.347000000000E+03
     3.120000000000E+00 0.000000000000E+00 2.095475792885E-09 0.000000000000E+00
     3.403400000000E+05
E08 2025 01 01 22 20 00-3.936048015021E-04-6.167510946398E-12 0.000000000000E+00
     5.800000000000E+01-1.724687500000E+02 2.559035165515E-09 6.074089700503E-01
    -7.962808012962E-06 1.743031898513E-04 1.116655766964E-05 5.440619813919E+03
     3.396000000000E+05-4.470348358154E-08 3.138837250313E-01-9.126961231232E-08
     9.694367087930E-01 1.081250000000E+02 6.406059825534E-01-5.163429363273E-09
     1.567922453121E-10 2.580000000000E+02 2.347000000000E+03
     3.120000000000E+00 0.000000000000E+00-5.820766091347E-09 0.000000000000E+00
     3.403400000000E+05
E13 2025 01 01 22 20 00-2.862437395379E-05-4.405364961713E-13 0.000000000000E+00
     5.800000000000E+01 1.784687500000E+02 2.640467128912E-09-2.643755937538E+00
     8.231028914452E-06 3.851127112284E-04 2.816319465637E-06 5.440607442856E+03
     3.396000000000E+05-6.332993507385E-08-1.776062195342E+00-3.725290298462E-09
     9.996893953160E-01 2.961875000000E+02-1.101441319361E+00-5.545945296597E-09
     2.339383158984E-10 2.580000000000E+02 2.347000000000E+03
     3.120000000000E+00 0.000000000000E+00 2.561137080193E-09 0.000000000000E+00
     3.403400000000E+05
S36 2025 01 01 22 32 32 0.000000000000E+00 0.000000000000E+00 3.403590000000E+05
     4.200368800000E+04 0.000000000000E+00 0.000000000000E+00 6.300000000000E+01
     3.674846960000E+03 0.000000000000E+00 0.000000000000E+00 3.276700000000E+04
     0.000000000000E+00 0.000000000000E+00 0.000000000000E+00 1.730000000000E+02
E23 2025 01 01 22 20 00 8.339236956090E-06-1.989519660128E-13 0.000000000000E+00
     5.800000000000E+01-2.403125000000E+01 3.502288741527E-09 1.440995227807E+00
    -1.102685928345E-06 3.615708556026E-04 6.049871444702E-06 5.440610416412E+03
     3.396000000000E+05-7.636845111847E-08 2.409403123368E+00-2.421438694000E-08
     9.660994210730E-01 2.159062500000E+02 1.617324208091E+00-5.602019060866E-09
    -4.721625246072E-10 2.580000000000E+02 2.347000000000E+03
     3.120000000000E+00 4.800000000000E+01-6.984919309616E-10 0.000000000000E+00
     3.403800000000E+05
